start=new Date('2021-11-23T00:00:00.000Z').valueOf();
sats=[{"EPHEMERIS_TYPE":"0","COUNTRY_CODE":"US","OBJECT_ID":"2020-006U","TIME_SYSTEM":"UTC","CENTER_NAME":"EARTH","ECCENTRICITY":"0.00018130","MEAN_ANOMALY":"276.8042","REF_FRAME":"TEME","GP_ID":"190231230","MEAN_MOTION_DOT":"-0.00000773","TLE_LINE2":"2 45062  53.0538 129.4291 0001813  83.3153 276.8042 15.06390872100008","BSTAR":"-0.00003298200000","LAUNCH_DATE":"2020-01-29","DECAY_DATE":null,"EPOCH":"2021-11-21T20:17:50.087904","INCLINATION":"53.0538","MEAN_MOTION_DDOT":"0.0000000000000","APOAPSIS":"548.497","MEAN_MOTION":"15.06390872","CLASSIFICATION_TYPE":"U","NORAD_CAT_ID":"45062","SITE":"AFETR","MEAN_ELEMENT_THEORY":"SGP4","PERIAPSIS":"545.986","ELEMENT_SET_NO":"999","RA_OF_ASC_NODE":"129.4291","SEMIMAJOR_AXIS":"6925.377","OBJECT_NAME":"STARLINK-1171","ARG_OF_PERICENTER":"83.3153","RCS_SIZE":"LARGE","PERIOD":"95.593","REV_AT_EPOCH":"10000","TLE_LINE1":"1 45062U 20006U   21325.84571861 -.00000773  00000-0 -32982-4 0  9995","OBJECT_TYPE":"PAYLOAD","FILE":"3220934"},{"SITE":"AFETR","ELEMENT_SET_NO":"999","PERIAPSIS":"546.245","MEAN_ELEMENT_THEORY":"SGP4","CLASSIFICATION_TYPE":"U","NORAD_CAT_ID":"45064","SEMIMAJOR_AXIS":"6925.325","RA_OF_ASC_NODE":"106.3895","ARG_OF_PERICENTER":"86.4456","OBJECT_NAME":"STARLINK-1133","RCS_SIZE":"LARGE","OBJECT_TYPE":"PAYLOAD","FILE":"3221278","PERIOD":"95.592","TLE_LINE1":"1 45064U 20006W   21326.52207684  .00001069  00000-0  90639-4 0  9992","REV_AT_EPOCH":"10038","TIME_SYSTEM":"UTC","CENTER_NAME":"EARTH","COUNTRY_CODE":"US","EPHEMERIS_TYPE":"0","OBJECT_ID":"2020-006W","MEAN_ANOMALY":"273.6689","REF_FRAME":"TEME","GP_ID":"190261817","MEAN_MOTION_DOT":"0.00001069","ECCENTRICITY":"0.00013650","TLE_LINE2":"2 45064  53.0536 106.3895 0001365  86.4456 273.6689 15.06407631100389","DECAY_DATE":null,"BSTAR":"0.00009063900000","LAUNCH_DATE":"2020-01-29","APOAPSIS":"548.135","MEAN_MOTION_DDOT":"0.0000000000000","MEAN_MOTION":"15.06407631","EPOCH":"2021-11-22T12:31:47.438976","INCLINATION":"53.0536"},{"DECAY_DATE":null,"LAUNCH_DATE":"2020-01-29","BSTAR":"0.00007238200000","TLE_LINE2":"2 45065  53.0551 106.3930 0001438  87.3105 272.8049 15.06396873100385","MEAN_MOTION":"15.06396873","APOAPSIS":"548.219","MEAN_MOTION_DDOT":"0.0000000000000","INCLINATION":"53.0551","EPOCH":"2021-11-22T12:37:06.229056","CENTER_NAME":"EARTH","TIME_SYSTEM":"UTC","OBJECT_ID":"2020-006X","COUNTRY_CODE":"US","EPHEMERIS_TYPE":"0","GP_ID":"190263069","MEAN_MOTION_DOT":"0.00000797","MEAN_ANOMALY":"272.8049","REF_FRAME":"TEME","ECCENTRICITY":"0.00014380","RCS_SIZE":"LARGE","OBJECT_NAME":"STARLINK-1139","ARG_OF_PERICENTER":"87.3105","FILE":"3221278","OBJECT_TYPE":"PAYLOAD","TLE_LINE1":"1 45065U 20006X   21326.52576654  .00000797  00000-0  72382-4 0  9991","REV_AT_EPOCH":"10038","PERIOD":"95.592","PERIAPSIS":"546.227","ELEMENT_SET_NO":"999","MEAN_ELEMENT_THEORY":"SGP4","SITE":"AFETR","NORAD_CAT_ID":"45065","CLASSIFICATION_TYPE":"U","SEMIMAJOR_AXIS":"6925.358","RA_OF_ASC_NODE":"106.3930"},{"OBJECT_ID":"2020-006Y","EPHEMERIS_TYPE":"0","COUNTRY_CODE":"US","CENTER_NAME":"EARTH","TIME_SYSTEM":"UTC","ECCENTRICITY":"0.00014030","MEAN_MOTION_DOT":"0.00001176","GP_ID":"190263312","MEAN_ANOMALY":"279.9523","REF_FRAME":"TEME","BSTAR":"0.00009787600000","LAUNCH_DATE":"2020-01-29","DECAY_DATE":null,"TLE_LINE2":"2 45066  53.0549 107.0995 0001403  80.1624 279.9523 15.06394493100359","INCLINATION":"53.0549","EPOCH":"2021-11-22T08:48:52.220448","MEAN_MOTION":"15.06394493","MEAN_MOTION_DDOT":"0.0000000000000","APOAPSIS":"548.202","NORAD_CAT_ID":"45066","CLASSIFICATION_TYPE":"U","MEAN_ELEMENT_THEORY":"SGP4","PERIAPSIS":"546.259","ELEMENT_SET_NO":"999","SITE":"AFETR","SEMIMAJOR_AXIS":"6925.365","RA_OF_ASC_NODE":"107.0995","RCS_SIZE":"LARGE","ARG_OF_PERICENTER":"80.1624","OBJECT_NAME":"STARLINK-1145","REV_AT_EPOCH":"10035","TLE_LINE1":"1 45066U 20006Y   21326.36727107  .00001176  00000-0  97876-4 0  9992","PERIOD":"95.592","FILE":"3221278","OBJECT_TYPE":"PAYLOAD"},{"PERIAPSIS":"546.075","ELEMENT_SET_NO":"999","MEAN_ELEMENT_THEORY":"SGP4","SITE":"AFETR","NORAD_CAT_ID":"45067","CLASSIFICATION_TYPE":"U","SEMIMAJOR_AXIS":"6925.352","RA_OF_ASC_NODE":"106.4244","RCS_SIZE":"LARGE","OBJECT_NAME":"STARLINK-1150","ARG_OF_PERICENTER":"82.3713","FILE":"3221278","OBJECT_TYPE":"PAYLOAD","REV_AT_EPOCH":"10038","TLE_LINE1":"1 45067U 20006Z   21326.51470335  .00001025  00000-0  87714-4 0  9991","PERIOD":"95.592","CENTER_NAME":"EARTH","TIME_SYSTEM":"UTC","OBJECT_ID":"2020-006Z","COUNTRY_CODE":"US","EPHEMERIS_TYPE":"0","MEAN_MOTION_DOT":"0.00001025","GP_ID":"190261567","MEAN_ANOMALY":"277.7463","REF_FRAME":"TEME","ECCENTRICITY":"0.00016500","DECAY_DATE":null,"LAUNCH_DATE":"2020-01-29","BSTAR":"0.00008771400000","TLE_LINE2":"2 45067  53.0537 106.4244 0001650  82.3713 277.7463 15.06398739100383","MEAN_MOTION":"15.06398739","APOAPSIS":"548.360","MEAN_MOTION_DDOT":"0.0000000000000","INCLINATION":"53.0537","EPOCH":"2021-11-22T12:21:10.369440"},{"ECCENTRICITY":"0.00015210","MEAN_ANOMALY":"267.7754","REF_FRAME":"TEME","GP_ID":"190262318","MEAN_MOTION_DOT":"0.00000521","EPHEMERIS_TYPE":"0","COUNTRY_CODE":"US","OBJECT_ID":"2020-006AA","TIME_SYSTEM":"UTC","CENTER_NAME":"EARTH","EPOCH":"2021-11-22T12:05:15.656352","INCLINATION":"53.0544","MEAN_MOTION_DDOT":"0.0000000000000","APOAPSIS":"548.244","MEAN_MOTION":"15.06407510","TLE_LINE2":"2 45068  53.0544 106.4908 0001521  92.3409 267.7754 15.06407510100378","BSTAR":"0.00005387500000","LAUNCH_DATE":"2020-01-29","DECAY_DATE":null,"SEMIMAJOR_AXIS":"6925.326","RA_OF_ASC_NODE":"106.4908","CLASSIFICATION_TYPE":"U","NORAD_CAT_ID":"45068","SITE":"AFETR","MEAN_ELEMENT_THEORY":"SGP4","ELEMENT_SET_NO":"999","PERIAPSIS":"546.137","PERIOD":"95.592","TLE_LINE1":"1 45068U 20006AA  21326.50365343  .00000521  00000-0  53875-4 0  9994","REV_AT_EPOCH":"10037","OBJECT_TYPE":"PAYLOAD","FILE":"3221278","ARG_OF_PERICENTER":"92.3409","OBJECT_NAME":"STARLINK-1161","RCS_SIZE":"LARGE"},{"COUNTRY_CODE":"US","EPHEMERIS_TYPE":"0","OBJECT_ID":"2020-006AD","TIME_SYSTEM":"UTC","CENTER_NAME":"EARTH","ECCENTRICITY":"0.00012730","REF_FRAME":"TEME","MEAN_ANOMALY":"268.2760","GP_ID":"190262569","MEAN_MOTION_DOT":"-0.00000676","TLE_LINE2":"2 45071  53.0547 106.5840 0001273  91.8375 268.2760 15.06395297100372","DECAY_DATE":null,"BSTAR":"-0.00002650900000","LAUNCH_DATE":"2020-01-29","EPOCH":"2021-11-22T11:33:24.257664","INCLINATION":"53.0547","APOAPSIS":"548.110","MEAN_MOTION_DDOT":"0.0000000000000","MEAN_MOTION":"15.06395297","CLASSIFICATION_TYPE":"U","NORAD_CAT_ID":"45071","SITE":"AFETR","PERIAPSIS":"546.346","ELEMENT_SET_NO":"999","MEAN_ELEMENT_THEORY":"SGP4","RA_OF_ASC_NODE":"106.5840","SEMIMAJOR_AXIS":"6925.363","ARG_OF_PERICENTER":"91.8375","OBJECT_NAME":"STARLINK-1167","RCS_SIZE":"LARGE","PERIOD":"95.592","TLE_LINE1":"1 45071U 20006AD  21326.48153076 -.00000676  00000-0 -26509-4 0  9990","REV_AT_EPOCH":"10037","OBJECT_TYPE":"PAYLOAD","FILE":"3221278"},{"RA_OF_ASC_NODE":"106.5641","SEMIMAJOR_AXIS":"6925.357","NORAD_CAT_ID":"45072","CLASSIFICATION_TYPE":"U","PERIAPSIS":"546.195","ELEMENT_SET_NO":"999","MEAN_ELEMENT_THEORY":"SGP4","SITE":"AFETR","REV_AT_EPOCH":"10037","TLE_LINE1":"1 45072U 20006AE  21326.48521752  .00000979  00000-0  84592-4 0  9991","PERIOD":"95.592","FILE":"3221278","OBJECT_TYPE":"PAYLOAD","RCS_SIZE":"LARGE","ARG_OF_PERICENTER":"80.0097","OBJECT_NAME":"STARLINK-1168","ECCENTRICITY":"0.00014830","GP_ID":"190262812","MEAN_MOTION_DOT":"0.00000979","REF_FRAME":"TEME","MEAN_ANOMALY":"280.1059","OBJECT_ID":"2020-006AE","COUNTRY_CODE":"US","EPHEMERIS_TYPE":"0","CENTER_NAME":"EARTH","TIME_SYSTEM":"UTC","INCLINATION":"53.0529","EPOCH":"2021-11-22T11:38:42.793728","MEAN_MOTION":"15.06397111","APOAPSIS":"548.249","MEAN_MOTION_DDOT":"0.0000000000000","DECAY_DATE":null,"BSTAR":"0.00008459200000","LAUNCH_DATE":"2020-01-29","TLE_LINE2":"2 45072  53.0529 106.5641 0001483  80.0097 280.1059 15.06397111100377"},{"SEMIMAJOR_AXIS":"6925.394","RA_OF_ASC_NODE":"106.7393","CLASSIFICATION_TYPE":"U","NORAD_CAT_ID":"45073","SITE":"AFETR","PERIAPSIS":"546.199","ELEMENT_SET_NO":"999","MEAN_ELEMENT_THEORY":"SGP4","PERIOD":"95.593","REV_AT_EPOCH":"10036","TLE_LINE1":"1 45073U 20006AF  21326.44468684  .00001388  00000-0  11207-3 0  9999","OBJECT_TYPE":"PAYLOAD","FILE":"3221278","OBJECT_NAME":"STARLINK-1170","ARG_OF_PERICENTER":"82.9625","RCS_SIZE":"LARGE","ECCENTRICITY":"0.00015300","MEAN_ANOMALY":"277.1538","REF_FRAME":"TEME","MEAN_MOTION_DOT":"0.00001388","GP_ID":"190262068","COUNTRY_CODE":"US","EPHEMERIS_TYPE":"0","OBJECT_ID":"2020-006AF","TIME_SYSTEM":"UTC","CENTER_NAME":"EARTH","EPOCH":"2021-11-22T10:40:20.942976","INCLINATION":"53.0541","APOAPSIS":"548.319","MEAN_MOTION_DDOT":"0.0000000000000","MEAN_MOTION":"15.06385190","TLE_LINE2":"2 45073  53.0541 106.7393 0001530  82.9625 277.1538 15.06385190100360","DECAY_DATE":null,"BSTAR":"0.00011207000000","LAUNCH_DATE":"2020-01-29"},{"SEMIMAJOR_AXIS":"6925.347","RA_OF_ASC_NODE":"107.1190","SITE":"AFETR","PERIAPSIS":"546.158","ELEMENT_SET_NO":"999","MEAN_ELEMENT_THEORY":"SGP4","CLASSIFICATION_TYPE":"U","NORAD_CAT_ID":"45074","OBJECT_TYPE":"PAYLOAD","FILE":"3221278","PERIOD":"95.592","REV_AT_EPOCH":"10035","TLE_LINE1":"1 45074U 20006AG  21326.36358119 -.00000401  00000-0 -80329-5 0  9992","ARG_OF_PERICENTER":"73.3920","OBJECT_NAME":"STARLINK-1172","RCS_SIZE":"LARGE","MEAN_ANOMALY":"286.7236","REF_FRAME":"TEME","GP_ID":"190261818","MEAN_MOTION_DOT":"-0.00000401","ECCENTRICITY":"0.00015220","TIME_SYSTEM":"UTC","CENTER_NAME":"EARTH","COUNTRY_CODE":"US","EPHEMERIS_TYPE":"0","OBJECT_ID":"2020-006AG","APOAPSIS":"548.266","MEAN_MOTION_DDOT":"0.0000000000000","MEAN_MOTION":"15.06400369","EPOCH":"2021-11-22T08:43:33.414816","INCLINATION":"53.0550","TLE_LINE2":"2 45074  53.0550 107.1190 0001522  73.3920 286.7236 15.06400369100350","DECAY_DATE":null,"LAUNCH_DATE":"2020-01-29","BSTAR":"-0.00000803290000"}];
